METHANESAT              
1 59101U 24043D   25131.11034389  .00003025  00000+0  28028-3 0  9992
2 59101  97.7959 257.3757 0009295 272.3059  87.7098 14.95210570 64512
